BEIDOU-2 G8             
1 44231U 19027A   26165.53092221 -.00000241  00000+0  00000+0 0  9993
2 44231   1.6501  74.5002 0010259 282.0715 241.9348  1.00271619 26050
COSMOS 2534 [GLONASS-M] 
1 44299U 19030A   26165.19558542  .00000106  00000+0  00000+0 0  9995
2 44299  64.3685 192.7172 0013360 275.2268  88.8292  2.13102146 54866
BEIDOU-3 IGSO-2         
1 44337U 19035A   26164.59235787 -.00000057  00000+0  00000+0 0  9995
2 44337  55.2457 158.8942 0039933 216.5217 219.5102  1.00267282 25633
NAVSTAR 78 (USA 293)    
1 44506U 19056A   26164.65840333 -.00000075  00000+0  00000+0 0  9992
2 44506  55.6389 331.2830 0061919 197.5945 161.8004  2.00569401 49991
BEIDOU-3 M24            
1 44542U 19061A   26162.33598668  .00000129  00000+0  00000+0 0  9991
2 44542  54.3962 182.9254 0008267 358.9131   1.1499  1.86229258 45684
BEIDOU-3 M23            
1 44543U 19061B   26165.39670685  .00000100  00000+0  00000+0 0  9990
2 44543  54.3948 182.7903 0005622 338.1911 185.5341  1.86227191 45740
EUTELSAT 5 WEST B       
1 44624U 19067A   26165.40258583 -.00000034  00000+0  00000+0 0  9994
2 44624   0.0628   0.8156 0002876  81.1129 320.7266  1.00271990 24408
BEIDOU-3 IGSO-3         
1 44709U 19073A   26136.81046384 -.00000217  00000+0  00000+0 0  9995
2 44709  54.8566 281.2355 0042953 189.4588 170.3676  1.00246251 24144
BEIDOU-3 M22            
1 44793U 19078A   26165.39744685 -.00000068  00000+0  00000+0 0  9991
2 44793  53.9389 299.9266 0006443  50.5968 309.4441  1.86227299 44592
BEIDOU-3 M21            
1 44794U 19078B   26164.46345251 -.00000068  00000+0  00000+0 0  9995
2 44794  53.9128 299.9208 0004278  48.5109 311.5090  1.86227756 44589
COSMOS 2544 [GLONASS-M] 
1 44850U 19088A   26164.74453859 -.00000029  00000+0  00000+0 0  9991
2 44850  65.5635  73.8460 0013271 258.8223 101.0491  2.13102464 50649
BEIDOU-3 M19            
1 44864U 19090A   26165.50657715 -.00000053  00000+0  00000+0 0  9998
2 44864  56.5563  62.8797 0017911 297.9595 238.7213  1.86231318 44188
BEIDOU-3 M20            
1 44865U 19090B   26165.37355236 -.00000054  00000+0  00000+0 0  9998
2 44865  56.5581  62.9188 0015705 311.9742 225.1097  1.86231348 44165
BEIDOU-3 G2             
1 45344U 20017A   26165.49069681 -.00000136  00000+0  00000+0 0  9992
2 45344   2.8577  47.2925 0002088  32.3243  79.8990  1.00272287 23236
COSMOS 2545 [GLONASS-M] 
1 45358U 20018A   26164.93954338 -.00000054  00000+0  00000+0 0  9997
2 45358  64.3570 312.5335 0008283 230.5235 129.3878  2.13102550 48598
BEIDOU-3 G3             
1 45807U 20040A   26165.57686869 -.00000348  00000+0  00000+0 0  9999
2 45807   2.4396  67.4391 0002448 335.5356 178.1123  1.00267886 22047
NAVSTAR 79 (USA 304)    
1 45854U 20041A   26162.56161249 -.00000063  00000+0  00000+0 0  9992
2 45854  56.6657  29.1622 0063604 204.6361  19.3768  2.00558626 43922
GALAXY 30 (G-30)        
1 46114U 20056C   26165.45004994  .00000044  00000+0  00000+0 0  9990
2 46114   0.0177   5.0992 0002058  79.2407 215.4260  1.00270496 21262
COSMOS 2547 [GLONASS-K] 
1 46805U 20075A   26163.72129992  .00000119  00000+0  00000+0 0  9995
2 46805  64.5993 192.6246 0009245 239.6069 120.3788  2.13100258 43813
NAVSTAR 80 (USA 309)    
1 46826U 20078A   26165.43436639  .00000081  00000+0  00000+0 0  9998
2 46826  53.9801 210.8904 0073424 207.1155 267.3501  2.00564753 41459
NAVSTAR 81 (USA 319)    
1 48859U 21054A   26165.49119520 -.00000079  00000+0  00000+0 0  9992
2 48859  55.1759 332.5679 0025337 228.5758 113.1489  2.00568903 36694
QZS-1R (MICHIBIKI-1R)   
1 49336U 21096A   26164.64421600 -.00000269  00000+0  00000+0 0  9991
2 49336  37.4546  79.6370 0754577 271.7231 276.7370  1.00256479 16975
GSAT0223 (GALILEO 27)   
1 49809U 21116A   26162.13215269 -.00000065  00000+0  00000+0 0  9997
2 49809  57.1623 341.8389 0001404 187.4451 176.2704  1.70475860 28084
GSAT0224 (GALILEO 28)   
1 49810U 21116B   26165.45828331 -.00000078  00000+0  00000+0 0  9991
2 49810  57.1622 341.7473 0001119 160.2799 197.3797  1.70475791 28152
COSMOS 2557 [GLONASS-K] 
1 52984U 22075A   26163.88559135 -.00000051  00000+0  00000+0 0  9991
2 52984  64.3011 314.6375 0010222 275.3123  84.5589  2.13102288 30621
COSMOS 2559 [GLONASS-K] 
1 54031U 22130A   26161.35892150 -.00000039  00000+0  00000+0 0  9991
2 54031  64.2757 314.8093 0012427 178.3735 181.6269  2.13101643 28547
COSMOS 2564 [GLONASS-M] 
1 54377U 22161A   26164.01779421  .00000118  00000+0  00000+0 0  9996
2 54377  64.7413 192.8502 0012141 224.5907 135.3886  2.13101986 27541
NAVSTAR 82 (USA 343)    
1 55268U 23009A   26163.12704838  .00000093  00000+0  00000+0 0  9991
2 55268  55.1221 148.7180 0006256 318.0841 154.7932  2.00571739 25144
BEIDOU-3 G4             
1 56564U 23066A   26165.50259047 -.00000273  00000+0  00000+0 0  9996
2 56564   0.4897 330.7659 0004291 181.9191  71.0522  1.00274578 11367
NVS-01 (IRNSS-1J)       
1 56759U 23076A   26165.50051045 -.00000327  00000+0  00000+0 0  9991
2 56759   2.1724 244.4781 0003194  36.6659 291.3460  1.00265911 11082
COSMOS 2569 [GLONASS-K2]
1 57517U 23114A   26164.03009862 -.00000032  00000+0  00000+0 0  9997
2 57517  65.2998  72.7606 0010818 296.8248  63.0846  2.13103647 22177
